[{"OBJECT_NAME":"PROTOMETHEE","OBJECT_ID":"2023-174BT","EPOCH":"2026-03-09T23:28:08.029344","MEAN_MOTION":15.30202663,"ECCENTRICITY":0.00088339,"INCLINATION":97.3826,"RA_OF_ASC_NODE":147.9552,"ARG_OF_PERICENTER":148.5993,"MEAN_ANOMALY":211.5776,"EPHEMERIS_TYPE":0,"CLASSIFICATION_TYPE":"U","NORAD_CAT_ID":58321,"ELEMENT_SET_NO":999,"REV_AT_EPOCH":12979,"BSTAR":0.00015715731,"MEAN_MOTION_DOT":4.52e-5,"MEAN_MOTION_DDOT":0},{"OBJECT_NAME":"STARLINK-34700","OBJECT_ID":"2025-157U","EPOCH":"2026-03-09T22:40:34.855968","MEAN_MOTION":15.30244715,"ECCENTRICITY":8.94e-5,"INCLINATION":53.1601,"RA_OF_ASC_NODE":344.4335,"ARG_OF_PERICENTER":130.7842,"MEAN_ANOMALY":229.3236,"EPHEMERIS_TYPE":0,"CLASSIFICATION_TYPE":"U","NORAD_CAT_ID":64922,"ELEMENT_SET_NO":999,"REV_AT_EPOCH":3611,"BSTAR":0.00096744327,"MEAN_MOTION_DOT":0.00028443,"MEAN_MOTION_DDOT":0}]
